{
    "links": {
        "self": "http://www.neowsapp.com/rest/v1/neo/3388487?api_key=iIulBulltgU6a56xZRHN4H3l9WmuAYTsLGpBGhQ2"
    },
    "id": "3388487",
    "neo_reference_id": "3388487",
    "name": "(2007 UG)",
    "designation": "2007 UG",
    "nasa_jpl_url": "http://ssd.jpl.nasa.gov/sbdb.cgi?sstr=3388487",
    "absolute_magnitude_h": 23.8,
    "estimated_diameter": {
        "kilometers": {
            "estimated_diameter_min": 0.046190746,
            "estimated_diameter_max": 0.1032856481
        },
        "meters": {
            "estimated_diameter_min": 46.1907460282,
            "estimated_diameter_max": 103.2856480504
        },
        "miles": {
            "estimated_diameter_min": 0.0287015901,
            "estimated_diameter_max": 0.0641787064
        },
        "feet": {
            "estimated_diameter_min": 151.544447199,
            "estimated_diameter_max": 338.8636855496
        }
    },
    "is_potentially_hazardous_asteroid": false,
    "close_approach_data": [
        {
            "close_approach_date": "2007-10-11",
            "close_approach_date_full": "2007-Oct-11 02:14",
            "epoch_date_close_approach": 1192068840000,
            "relative_velocity": {
                "kilometers_per_second": "9.2589975117",
                "kilometers_per_hour": "33332.3910419781",
                "miles_per_hour": "20711.4515338335"
            },
            "miss_distance": {
                "astronomical": "0.0739921545",
                "lunar": "28.7829481005",
                "kilometers": "11069068.709910915",
                "miles": "6878000.359224027"
            },
            "orbiting_body": "Earth"
        }
    ],
    "orbital_data": {
        "orbit_id": "6",
        "orbit_determination_date": "2017-04-06 09:05:37",
        "first_observation_date": "2007-10-16",
        "last_observation_date": "2007-10-16",
        "data_arc_in_days": null,
        "observations_used": 21,
        "orbit_uncertainty": "9",
        "minimum_orbit_intersection": ".0539079",
        "jupiter_tisserand_invariant": "4.123",
        "epoch_osculation": "2454389.5",
        "eccentricity": ".3797167016540293",
        "semi_major_axis": "1.680139584302848",
        "inclination": "12.59594001912977",
        "ascending_node_longitude": "197.5391063998253",
        "orbital_period": "795.4565693120387",
        "perihelion_distance": "1.042162523032999",
        "perihelion_argument": "161.4855331974217",
        "aphelion_distance": "2.318116645572698",
        "perihelion_time": "2454370.302904498615",
        "mean_anomaly": "8.688034830708146",
        "mean_motion": ".4525702771068329",
        "equinox": "J2000",
        "orbit_class": {
            "orbit_class_type": "AMO",
            "orbit_class_description": "Near-Earth asteroid orbits similar to that of 1221 Amor",
            "orbit_class_range": "1.017 AU < q (perihelion) < 1.3 AU"
        }
    },
    "is_sentry_object": false
}